{"type": "FeatureCollection", "features": [ {"type": "Feature", "properties": {"norad_id": 17070, "name": "POLAR BEAR", "group": "nnss", "lat": 84.60807610721439, "lon": -171.9403077544538, "alt_km": 954.6735199786972, "timestamp": "2025-12-06T22:38:42.996998+00:00", "meta": {"OBJECT_NAME": "POLAR BEAR", "OBJECT_ID": "1986-088A", "EPOCH": "2025-12-06T15:35:55.464000", "MEAN_MOTION": 13.75249012, "ECCENTRICITY": 0.00405694, "INCLINATION": 89.6179, "RA_OF_ASC_NODE": 184.0173, "ARG_OF_PERICENTER": 136.9422, "MEAN_ANOMALY": 295.3265, "EPHEMERIS_TYPE": 0, "CLASSIFICATION_TYPE": "U", "NORAD_CAT_ID": 17070, "ELEMENT_SET_NO": 999, "REV_AT_EPOCH": 95895, "BSTAR": 0.00017232039, "MEAN_MOTION_DOT": 1.78e-06, "MEAN_MOTION_DDOT": 0}, "tle": {"line1": "1 17070U 86088A   25340.64994750  .00000178  00000+0  17232-3 0  9996", "line2": "2 17070  89.6179 184.0173 0040569 136.9422 295.3265 13.75249012958954"}}, "geometry": {"type": "Point", "coordinates": [-171.9403077544538, 84.60807610721439]}}, {"type": "Feature", "properties": {"norad_id": 18361, "name": "OSCAR 27", "group": "nnss", "lat": -75.03904641337485, "lon": -102.34585313375221, "alt_km": 1024.2502807411684, "timestamp": "2025-12-06T22:38:42.997008+00:00", "meta": {"OBJECT_NAME": "OSCAR 27", "OBJECT_ID": "1987-080A", "EPOCH": "2025-12-06T12:26:58.014528", "MEAN_MOTION": 13.44904721, "ECCENTRICITY": 0.01025257, "INCLINATION": 90.3742, "RA_OF_ASC_NODE": 79.0396, "ARG_OF_PERICENTER": 241.8541, "MEAN_ANOMALY": 117.2218, "EPHEMERIS_TYPE": 0, "CLASSIFICATION_TYPE": "U", "NORAD_CAT_ID": 18361, "ELEMENT_SET_NO": 999, "REV_AT_EPOCH": 87473, "BSTAR": 0.00029954433, "MEAN_MOTION_DOT": 1.89e-06, "MEAN_MOTION_DDOT": 0}, "tle": {"line1": "1 18361U 87080A   25340.51872702  .00000189  00000+0  29954-3 0  9997", "line2": "2 18361  90.3742  79.0396 0102525 241.8541 117.2218 13.44904721874736"}}, "geometry": {"type": "Point", "coordinates": [-102.34585313375221, -75.03904641337485]}}, {"type": "Feature", "properties": {"norad_id": 18362, "name": "OSCAR 29", "group": "nnss", "lat": -83.28152692124618, "lon": 82.70415353693161, "alt_km": 1024.5758744295626, "timestamp": "2025-12-06T22:38:42.997018+00:00", "meta": {"OBJECT_NAME": "OSCAR 29", "OBJECT_ID": "1987-080B", "EPOCH": "2025-12-06T12:23:38.473728", "MEAN_MOTION": 13.44446662, "ECCENTRICITY": 0.01037305, "INCLINATION": 90.3754, "RA_OF_ASC_NODE": 79.4978, "ARG_OF_PERICENTER": 265.2723, "MEAN_ANOMALY": 105.0743, "EPHEMERIS_TYPE": 0, "CLASSIFICATION_TYPE": "U", "NORAD_CAT_ID": 18362, "ELEMENT_SET_NO": 999, "REV_AT_EPOCH": 87426, "BSTAR": 0.00026793963, "MEAN_MOTION_DOT": 1.68e-06, "MEAN_MOTION_DDOT": 0}, "tle": {"line1": "1 18362U 87080B   25340.51641752  .00000168  00000+0  26794-3 0  9993", "line2": "2 18362  90.3754  79.4978 0103730 265.2723 105.0743 13.44446662874262"}}, "geometry": {"type": "Point", "coordinates": [82.70415353693161, -83.28152692124618]}}, {"type": "Feature", "properties": {"norad_id": 19070, "name": "OSCAR 23", "group": "nnss", "lat": 38.10496450908636, "lon": 15.960357634380584, "alt_km": 1283.8585493114706, "timestamp": "2025-12-06T22:38:42.997029+00:00", "meta": {"OBJECT_NAME": "OSCAR 23", "OBJECT_ID": "1988-033A", "EPOCH": "2025-12-06T15:50:30.811776", "MEAN_MOTION": 13.2778583, "ECCENTRICITY": 0.01890189, "INCLINATION": 90.3219, "RA_OF_ASC_NODE": 16.2041, "ARG_OF_PERICENTER": 196.8471, "MEAN_ANOMALY": 287.9417, "EPHEMERIS_TYPE": 0, "CLASSIFICATION_TYPE": "U", "NORAD_CAT_ID": 19070, "ELEMENT_SET_NO": 999, "REV_AT_EPOCH": 82172, "BSTAR": 0.0002755695, "MEAN_MOTION_DOT": 1.45e-06, "MEAN_MOTION_DDOT": 0}, "tle": {"line1": "1 19070U 88033A   25340.66007884  .00000145  00000+0  27557-3 0  9990", "line2": "2 19070  90.3219  16.2041 0189018 196.8471 287.9417 13.27785830821722"}}, "geometry": {"type": "Point", "coordinates": [15.960357634380584, 38.10496450908636]}}, {"type": "Feature", "properties": {"norad_id": 19071, "name": "OSCAR 32", "group": "nnss", "lat": 35.38034347014884, "lon": -163.42640063406813, "alt_km": 1040.1472318621327, "timestamp": "2025-12-06T22:38:42.997039+00:00", "meta": {"OBJECT_NAME": "OSCAR 32", "OBJECT_ID": "1988-033B", "EPOCH": "2025-12-06T15:17:39.020352", "MEAN_MOTION": 13.27952893, "ECCENTRICITY": 0.01878419, "INCLINATION": 90.3223, "RA_OF_ASC_NODE": 16.335, "ARG_OF_PERICENTER": 183.7563, "MEAN_ANOMALY": 298.6604, "EPHEMERIS_TYPE": 0, "CLASSIFICATION_TYPE": "U", "NORAD_CAT_ID": 19071, "ELEMENT_SET_NO": 999, "REV_AT_EPOCH": 82184, "BSTAR": 0.00022108086, "MEAN_MOTION_DOT": 1.18e-06, "MEAN_MOTION_DDOT": 0}, "tle": {"line1": "1 19071U 88033B   25340.63725718  .00000118  00000+0  22108-3 0  9998", "line2": "2 19071  90.3223  16.3350 0187841 183.7563 298.6604 13.27952893821846"}}, "geometry": {"type": "Point", "coordinates": [-163.42640063406813, 35.38034347014884]}}, {"type": "Feature", "properties": {"norad_id": 19223, "name": "NOVA 2", "group": "nnss", "lat": 87.92698192950422, "lon": 78.63334469512475, "alt_km": 1152.6866151073282, "timestamp": "2025-12-06T22:38:42.997050+00:00", "meta": {"OBJECT_NAME": "NOVA 2", "OBJECT_ID": "1988-052A", "EPOCH": "2025-12-06T13:11:08.388096", "MEAN_MOTION": 13.22934891, "ECCENTRICITY": 0.00310907, "INCLINATION": 89.9872, "RA_OF_ASC_NODE": 78.28, "ARG_OF_PERICENTER": 33.5863, "MEAN_ANOMALY": 337.9702, "EPHEMERIS_TYPE": 0, "CLASSIFICATION_TYPE": "U", "NORAD_CAT_ID": 19223, "ELEMENT_SET_NO": 999, "REV_AT_EPOCH": 80866, "BSTAR": 0.00028884987, "MEAN_MOTION_DOT": 1.3e-06, "MEAN_MOTION_DDOT": 0}, "tle": {"line1": "1 19223U 88052A   25340.54940264  .00000130  00000+0  28885-3 0  9995", "line2": "2 19223  89.9872  78.2800 0031090  33.5863 337.9702 13.22934891808669"}}, "geometry": {"type": "Point", "coordinates": [78.63334469512475, 87.92698192950422]}}, {"type": "Feature", "properties": {"norad_id": 19419, "name": "OSCAR 25", "group": "nnss", "lat": 66.91108931983077, "lon": -159.6925786766256, "alt_km": 1153.765502178554, "timestamp": "2025-12-06T22:38:42.997060+00:00", "meta": {"OBJECT_NAME": "OSCAR 25", "OBJECT_ID": "1988-074A", "EPOCH": "2025-12-06T15:31:01.635744", "MEAN_MOTION": 13.42621671, "ECCENTRICITY": 0.00942628, "INCLINATION": 90.0351, "RA_OF_ASC_NODE": 20.224, "ARG_OF_PERICENTER": 263.541, "MEAN_ANOMALY": 215.3416, "EPHEMERIS_TYPE": 0, "CLASSIFICATION_TYPE": "U", "NORAD_CAT_ID": 19419, "ELEMENT_SET_NO": 999, "REV_AT_EPOCH": 82558, "BSTAR": 0.00027999052, "MEAN_MOTION_DOT": 1.71e-06, "MEAN_MOTION_DDOT": 0}, "tle": {"line1": "1 19419U 88074A   25340.64654671  .00000171  00000+0  27999-3 0  9991", "line2": "2 19419  90.0351  20.2240 0094262 263.5410 215.3416 13.42621671825581"}}, "geometry": {"type": "Point", "coordinates": [-159.6925786766256, 66.91108931983077]}}, {"type": "Feature", "properties": {"norad_id": 19420, "name": "OSCAR 31", "group": "nnss", "lat": -0.9047603578771674, "lon": 20.57458360505388, "alt_km": 1116.9896837027527, "timestamp": "2025-12-06T22:38:42.997070+00:00", "meta": {"OBJECT_NAME": "OSCAR 31", "OBJECT_ID": "1988-074B", "EPOCH": "2025-12-06T16:04:43.885632", "MEAN_MOTION": 13.42583231, "ECCENTRICITY": 0.00925253, "INCLINATION": 90.0368, "RA_OF_ASC_NODE": 20.573, "ARG_OF_PERICENTER": 257.5822, "MEAN_ANOMALY": 218.9768, "EPHEMERIS_TYPE": 0, "CLASSIFICATION_TYPE": "U", "NORAD_CAT_ID": 19420, "ELEMENT_SET_NO": 999, "REV_AT_EPOCH": 82569, "BSTAR": 0.00024589773, "MEAN_MOTION_DOT": 1.51e-06, "MEAN_MOTION_DDOT": 0}, "tle": {"line1": "1 19420U 88074B   25340.66995238  .00000151  00000+0  24590-3 0  9994", "line2": "2 19420  90.0368  20.5730 0092525 257.5822 218.9768 13.42583231825698"}}, "geometry": {"type": "Point", "coordinates": [20.57458360505388, -0.9047603578771674]}}]}